[{"OBJECT_NAME":"STARLINK-31044","OBJECT_ID":"2023-200A","EPOCH":"2026-02-10T03:15:10.749312","MEAN_MOTION":15.02542298,"ECCENTRICITY":0.0001282,"INCLINATION":43.0013,"RA_OF_ASC_NODE":319.6044,"ARG_OF_PERICENTER":255.2526,"MEAN_ANOMALY":104.8174,"EPHEMERIS_TYPE":0,"CLASSIFICATION_TYPE":"U","NORAD_CAT_ID":58589,"ELEMENT_SET_NO":999,"REV_AT_EPOCH":11945,"BSTAR":0.00019946,"MEAN_MOTION_DOT":2.492e-5,"MEAN_MOTION_DDOT":0},{"OBJECT_NAME":"STARLINK-31062","OBJECT_ID":"2023-200B","EPOCH":"2026-02-09T22:54:04.798080","MEAN_MOTION":15.02526359,"ECCENTRICITY":0.0001283,"INCLINATION":43.0043,"RA_OF_ASC_NODE":322.5457,"ARG_OF_PERICENTER":266.0776,"MEAN_ANOMALY":93.992,"EPHEMERIS_TYPE":0,"CLASSIFICATION_TYPE":"U","NORAD_CAT_ID":58590,"ELEMENT_SET_NO":999,"REV_AT_EPOCH":11940,"BSTAR":0.00045258,"MEAN_MOTION_DOT":5.914e-5,"MEAN_MOTION_DDOT":0},{"OBJECT_NAME":"STARLINK-31096","OBJECT_ID":"2023-200D","EPOCH":"2026-02-10T02:45:18.838368","MEAN_MOTION":15.02535143,"ECCENTRICITY":0.0001121,"INCLINATION":43.0034,"RA_OF_ASC_NODE":321.1763,"ARG_OF_PERICENTER":271.9039,"MEAN_ANOMALY":88.1675,"EPHEMERIS_TYPE":0,"CLASSIFICATION_TYPE":"U","NORAD_CAT_ID":58592,"ELEMENT_SET_NO":999,"REV_AT_EPOCH":11943,"BSTAR":2.3922e-5,"MEAN_MOTION_DOT":1.2e-6,"MEAN_MOTION_DDOT":0},{"OBJECT_NAME":"STARLINK-31094","OBJECT_ID":"2023-200E","EPOCH":"2026-02-10T03:00:56.584224","MEAN_MOTION":15.02539064,"ECCENTRICITY":0.0001295,"INCLINATION":43.0038,"RA_OF_ASC_NODE":320.4041,"ARG_OF_PERICENTER":262.3362,"MEAN_ANOMALY":97.7333,"EPHEMERIS_TYPE":0,"CLASSIFICATION_TYPE":"U","NORAD_CAT_ID":58593,"ELEMENT_SET_NO":999,"REV_AT_EPOCH":11944,"BSTAR":5.9072e-5,"MEAN_MOTION_DOT":5.94e-6,"MEAN_MOTION_DDOT":0},{"OBJECT_NAME":"STARLINK-31075","OBJECT_ID":"2023-200F","EPOCH":"2026-02-10T02:41:45.883104","MEAN_MOTION":15.02547798,"ECCENTRICITY":0.0001084,"INCLINATION":43.0025,"RA_OF_ASC_NODE":320.2953,"ARG_OF_PERICENTER":272.6734,"MEAN_ANOMALY":87.3984,"EPHEMERIS_TYPE":0,"CLASSIFICATION_TYPE":"U","NORAD_CAT_ID":58594,"ELEMENT_SET_NO":999,"REV_AT_EPOCH":11944,"BSTAR":0.00015561,"MEAN_MOTION_DOT":1.9e-5,"MEAN_MOTION_DDOT":0},{"OBJECT_NAME":"STARLINK-30857","OBJECT_ID":"2023-200G","EPOCH":"2026-02-09T02:50:39.009984","MEAN_MOTION":15.02537064,"ECCENTRICITY":9.34e-5,"INCLINATION":43.0045,"RA_OF_ASC_NODE":325.7472,"ARG_OF_PERICENTER":274.5284,"MEAN_ANOMALY":85.5452,"EPHEMERIS_TYPE":0,"CLASSIFICATION_TYPE":"U","NORAD_CAT_ID":58595,"ELEMENT_SET_NO":999,"REV_AT_EPOCH":11929,"BSTAR":5.1955421e-5,"MEAN_MOTION_DOT":4.98e-6,"MEAN_MOTION_DDOT":0},{"OBJECT_NAME":"STARLINK-31059","OBJECT_ID":"2023-200H","EPOCH":"2026-02-09T09:27:52.468128","MEAN_MOTION":15.27572047,"ECCENTRICITY":0.00010061,"INCLINATION":42.9979,"RA_OF_ASC_NODE":171.9213,"ARG_OF_PERICENTER":263.0899,"MEAN_ANOMALY":96.9839,"EPHEMERIS_TYPE":0,"CLASSIFICATION_TYPE":"U","NORAD_CAT_ID":58596,"ELEMENT_SET_NO":999,"REV_AT_EPOCH":12112,"BSTAR":2.425515e-6,"MEAN_MOTION_DOT":-1.95e-6,"MEAN_MOTION_DDOT":0},{"OBJECT_NAME":"STARLINK-31087","OBJECT_ID":"2023-200J","EPOCH":"2026-02-10T02:36:57.988800","MEAN_MOTION":15.02540443,"ECCENTRICITY":0.0001343,"INCLINATION":43.0062,"RA_OF_ASC_NODE":320.2738,"ARG_OF_PERICENTER":258.865,"MEAN_ANOMALY":101.2041,"EPHEMERIS_TYPE":0,"CLASSIFICATION_TYPE":"U","NORAD_CAT_ID":58597,"ELEMENT_SET_NO":999,"REV_AT_EPOCH":11933,"BSTAR":6.3464e-5,"MEAN_MOTION_DOT":6.54e-6,"MEAN_MOTION_DDOT":0},{"OBJECT_NAME":"STARLINK-31079","OBJECT_ID":"2023-200K","EPOCH":"2026-02-10T02:26:51.967104","MEAN_MOTION":15.31643749,"ECCENTRICITY":0.0025848,"INCLINATION":42.9867,"RA_OF_ASC_NODE":298.0914,"ARG_OF_PERICENTER":203.4144,"MEAN_ANOMALY":156.5534,"EPHEMERIS_TYPE":0,"CLASSIFICATION_TYPE":"U","NORAD_CAT_ID":58598,"ELEMENT_SET_NO":999,"REV_AT_EPOCH":11970,"BSTAR":0.0033275,"MEAN_MOTION_DOT":0.00106074,"MEAN_MOTION_DDOT":0},{"OBJECT_NAME":"STARLINK-31052","OBJECT_ID":"2023-200M","EPOCH":"2026-02-10T04:03:06.658848","MEAN_MOTION":15.02540266,"ECCENTRICITY":0.0001346,"INCLINATION":43.007,"RA_OF_ASC_NODE":319.8627,"ARG_OF_PERICENTER":249.9588,"MEAN_ANOMALY":110.111,"EPHEMERIS_TYPE":0,"CLASSIFICATION_TYPE":"U","NORAD_CAT_ID":58600,"ELEMENT_SET_NO":999,"REV_AT_EPOCH":11945,"BSTAR":0.0001815,"MEAN_MOTION_DOT":2.249e-5,"MEAN_MOTION_DDOT":0},{"OBJECT_NAME":"STARLINK-31074","OBJECT_ID":"2023-200N","EPOCH":"2026-02-10T02:22:36.688800","MEAN_MOTION":15.02532974,"ECCENTRICITY":9.25e-5,"INCLINATION":43.0031,"RA_OF_ASC_NODE":320.2057,"ARG_OF_PERICENTER":344.4754,"MEAN_ANOMALY":15.606,"EPHEMERIS_TYPE":0,"CLASSIFICATION_TYPE":"U","NORAD_CAT_ID":58601,"ELEMENT_SET_NO":999,"REV_AT_EPOCH":11944,"BSTAR":3.9832e-5,"MEAN_MOTION_DOT":3.35e-6,"MEAN_MOTION_DDOT":0},{"OBJECT_NAME":"STARLINK-31071","OBJECT_ID":"2023-200P","EPOCH":"2026-02-09T15:50:43.776096","MEAN_MOTION":15.27581883,"ECCENTRICITY":0.00014014,"INCLINATION":43.002,"RA_OF_ASC_NODE":166.9723,"ARG_OF_PERICENTER":240.7033,"MEAN_ANOMALY":119.3679,"EPHEMERIS_TYPE":0,"CLASSIFICATION_TYPE":"U","NORAD_CAT_ID":58602,"ELEMENT_SET_NO":999,"REV_AT_EPOCH":12120,"BSTAR":-5.405972e-5,"MEAN_MOTION_DOT":-1.749e-5,"MEAN_MOTION_DDOT":0},{"OBJECT_NAME":"STARLINK-31080","OBJECT_ID":"2023-200Q","EPOCH":"2026-02-10T03:53:31.550208","MEAN_MOTION":15.02544881,"ECCENTRICITY":5.76e-5,"INCLINATION":43.0005,"RA_OF_ASC_NODE":319.805,"ARG_OF_PERICENTER":316.7061,"MEAN_ANOMALY":43.3736,"EPHEMERIS_TYPE":0,"CLASSIFICATION_TYPE":"U","NORAD_CAT_ID":58603,"ELEMENT_SET_NO":999,"REV_AT_EPOCH":11926,"BSTAR":-2.1375e-5,"MEAN_MOTION_DOT":-4.92e-6,"MEAN_MOTION_DDOT":0},{"OBJECT_NAME":"STARLINK-31088","OBJECT_ID":"2023-200R","EPOCH":"2026-02-10T02:13:00.957216","MEAN_MOTION":15.02525856,"ECCENTRICITY":6.08e-5,"INCLINATION":43.0026,"RA_OF_ASC_NODE":320.1363,"ARG_OF_PERICENTER":273.2054,"MEAN_ANOMALY":86.8719,"EPHEMERIS_TYPE":0,"CLASSIFICATION_TYPE":"U","NORAD_CAT_ID":58604,"ELEMENT_SET_NO":999,"REV_AT_EPOCH":11944,"BSTAR":0.00026686,"MEAN_MOTION_DOT":3.402e-5,"MEAN_MOTION_DDOT":0},{"OBJECT_NAME":"STARLINK-31038","OBJECT_ID":"2023-200S","EPOCH":"2026-02-10T03:39:08.371008","MEAN_MOTION":15.02534756,"ECCENTRICITY":0.000119,"INCLINATION":43.0045,"RA_OF_ASC_NODE":319.7394,"ARG_OF_PERICENTER":267.6204,"MEAN_ANOMALY":92.4502,"EPHEMERIS_TYPE":0,"CLASSIFICATION_TYPE":"U","NORAD_CAT_ID":58605,"ELEMENT_SET_NO":999,"REV_AT_EPOCH":11945,"BSTAR":4.0131e-5,"MEAN_MOTION_DOT":3.38e-6,"MEAN_MOTION_DDOT":0},{"OBJECT_NAME":"STARLINK-31082","OBJECT_ID":"2023-200T","EPOCH":"2026-02-10T02:08:09.649248","MEAN_MOTION":15.02558467,"ECCENTRICITY":0.000194,"INCLINATION":43.0064,"RA_OF_ASC_NODE":320.1246,"ARG_OF_PERICENTER":263.3355,"MEAN_ANOMALY":96.7266,"EPHEMERIS_TYPE":0,"CLASSIFICATION_TYPE":"U","NORAD_CAT_ID":58606,"ELEMENT_SET_NO":999,"REV_AT_EPOCH":11944,"BSTAR":0.00029056,"MEAN_MOTION_DOT":3.726e-5,"MEAN_MOTION_DDOT":0},{"OBJECT_NAME":"STARLINK-31069","OBJECT_ID":"2023-200U","EPOCH":"2026-02-10T03:34:20.606304","MEAN_MOTION":15.02538167,"ECCENTRICITY":6.31e-5,"INCLINATION":43.0044,"RA_OF_ASC_NODE":319.7136,"ARG_OF_PERICENTER":261.1844,"MEAN_ANOMALY":98.8927,"EPHEMERIS_TYPE":0,"CLASSIFICATION_TYPE":"U","NORAD_CAT_ID":58607,"ELEMENT_SET_NO":999,"REV_AT_EPOCH":11945,"BSTAR":3.2098e-5,"MEAN_MOTION_DOT":2.3e-6,"MEAN_MOTION_DDOT":0}]
