STARLINK-31044          
1 58589U 23200A   26041.13554108  .00002492  00000+0  19946-3 0  9990
2 58589  43.0013 319.6044 0001282 255.2526 104.8174 15.02542298119458
STARLINK-31062          
1 58590U 23200B   26040.95422220  .00005914  00000+0  45258-3 0  9997
2 58590  43.0043 322.5457 0001283 266.0776  93.9920 15.02526359119404
STARLINK-31096          
1 58592U 23200D   26041.11480137  .00000120  00000+0  23922-4 0  9998
2 58592  43.0034 321.1763 0001121 271.9039  88.1675 15.02535143119436
STARLINK-31094          
1 58593U 23200E   26041.12565491  .00000594  00000+0  59072-4 0  9997
2 58593  43.0038 320.4041 0001295 262.3362  97.7333 15.02539064119441
STARLINK-31075          
1 58594U 23200F   26041.11233661  .00001900  00000+0  15561-3 0  9994
2 58594  43.0025 320.2953 0001084 272.6734  87.3984 15.02547798119441
STARLINK-30857          
1 58595U 23200G   26040.11850706  .00000498  00000+0  51955-4 0  9998
2 58595  43.0045 325.7472 0000934 274.5284  85.5452 15.02537064119292
STARLINK-31059          
1 58596U 23200H   26040.39435727 -.00000195  00000+0  24255-5 0  9990
2 58596  42.9979 171.9213 0001006 263.0899  96.9839 15.27572047121124
STARLINK-31087          
1 58597U 23200J   26041.10900450  .00000654  00000+0  63464-4 0  9994
2 58597  43.0062 320.2738 0001343 258.8650 101.2041 15.02540443119335
STARLINK-31079          
1 58598U 23200K   26041.10199036  .00106074  00000+0  33275-2 0  9993
2 58598  42.9867 298.0914 0025848 203.4144 156.5534 15.31643749119701
STARLINK-31052          
1 58600U 23200M   26041.16882707  .00002249  00000+0  18150-3 0  9992
2 58600  43.0070 319.8627 0001346 249.9588 110.1110 15.02540266119456
STARLINK-31074          
1 58601U 23200N   26041.09903575  .00000335  00000+0  39832-4 0  9997
2 58601  43.0031 320.2057 0000925 344.4754  15.6060 15.02532974119444
STARLINK-31071          
1 58602U 23200P   26040.66022889 -.00001749  00000+0 -54060-4 0  9992
2 58602  43.0020 166.9723 0001401 240.7033 119.3679 15.27581883121201
STARLINK-31080          
1 58603U 23200Q   26041.16217072 -.00000492  00000+0 -21375-4 0  9996
2 58603  43.0005 319.8050 0000576 316.7061  43.3736 15.02544881119267
STARLINK-31088          
1 58604U 23200R   26041.09237219  .00003402  00000+0  26686-3 0  9995
2 58604  43.0026 320.1363 0000608 273.2054  86.8719 15.02525856119442
STARLINK-31038          
1 58605U 23200S   26041.15218022  .00000338  00000+0  40131-4 0  9991
2 58605  43.0045 319.7394 0001190 267.6204  92.4502 15.02534756119456
STARLINK-31082          
1 58606U 23200T   26041.08900057  .00003726  00000+0  29056-3 0  9996
2 58606  43.0064 320.1246 0001940 263.3355  96.7266 15.02558467119441
STARLINK-31069          
1 58607U 23200U   26041.14884961  .00000230  00000+0  32098-4 0  9997
2 58607  43.0044 319.7136 0000631 261.1844  98.8927 15.02538167119450
